start=new Date('2022-07-20T00:00:00.000Z').valueOf();
sats=[{"EPHEMERIS_TYPE":"0","TIME_SYSTEM":"UTC","REF_FRAME":"TEME","DECAY_DATE":null,"OBJECT_TYPE":"PAYLOAD","COUNTRY_CODE":"US","NORAD_CAT_ID":"47995","SEMIMAJOR_AXIS":"6925.303","PERIOD":"95.591","PERIAPSIS":"546.084","MEAN_ELEMENT_THEORY":"SGP4","EPOCH":"2022-07-19T21:05:20.887872","BSTAR":"0.00075723000000","RA_OF_ASC_NODE":"122.2004","MEAN_MOTION_DOT":"0.00011020","RCS_SIZE":"LARGE","OBJECT_NAME":"STARLINK-2309","ELEMENT_SET_NO":"999","GP_ID":"208470899","MEAN_MOTION":"15.06414943","TLE_LINE2":"2 47995  53.0529 122.2004 0001565  71.8170 288.2989 15.06414943 75063","CLASSIFICATION_TYPE":"U","CENTER_NAME":"EARTH","MEAN_ANOMALY":"288.2989","REV_AT_EPOCH":"7506","INCLINATION":"53.0529","APOAPSIS":"548.252","SITE":"AFETR","TLE_LINE1":"1 47995U 21024U   22200.87871398  .00011020  00000-0  75723-3 0  9991","OBJECT_ID":"2021-024U","ARG_OF_PERICENTER":"71.8170","ECCENTRICITY":"0.00015650","LAUNCH_DATE":"2021-03-24","FILE":"3517796","MEAN_MOTION_DDOT":"0.0000000000000"},{"PERIAPSIS":"546.151","RA_OF_ASC_NODE":"46.6328","BSTAR":"0.00395710000000","EPOCH":"2022-07-20T00:00:00.999648","MEAN_ELEMENT_THEORY":"SGP4","MEAN_MOTION_DOT":"0.00059127","RCS_SIZE":"LARGE","TIME_SYSTEM":"UTC","EPHEMERIS_TYPE":"0","OBJECT_TYPE":"PAYLOAD","DECAY_DATE":null,"REF_FRAME":"TEME","PERIOD":"95.593","SEMIMAJOR_AXIS":"6925.404","NORAD_CAT_ID":"47996","COUNTRY_CODE":"US","ECCENTRICITY":"0.00016150","FILE":"3517796","LAUNCH_DATE":"2021-03-24","MEAN_MOTION_DDOT":"0.0000000000000","MEAN_MOTION":"15.06381891","GP_ID":"208471150","ELEMENT_SET_NO":"999","OBJECT_NAME":"STARLINK-2260","CLASSIFICATION_TYPE":"U","CENTER_NAME":"EARTH","MEAN_ANOMALY":"2.3981","TLE_LINE2":"2 47996  53.0555  46.6328 0001615  68.3654   2.3981 15.06381891  1303","ARG_OF_PERICENTER":"68.3654","TLE_LINE1":"1 47996U 21024V   22201.00001157  .00059127  00000-0  39571-2 0  9996","SITE":"AFETR","OBJECT_ID":"2021-024V","APOAPSIS":"548.388","INCLINATION":"53.0555","REV_AT_EPOCH":"130"},{"PERIAPSIS":"546.264","BSTAR":"0.00013302000000","RA_OF_ASC_NODE":"157.0027","MEAN_ELEMENT_THEORY":"SGP4","EPOCH":"2022-07-19T20:26:08.800800","RCS_SIZE":"LARGE","MEAN_MOTION_DOT":"0.00001700","EPHEMERIS_TYPE":"0","TIME_SYSTEM":"UTC","OBJECT_TYPE":"PAYLOAD","REF_FRAME":"TEME","DECAY_DATE":null,"SEMIMAJOR_AXIS":"6925.373","PERIOD":"95.593","COUNTRY_CODE":"US","NORAD_CAT_ID":"47997","ECCENTRICITY":"0.00014060","FILE":"3517796","LAUNCH_DATE":"2021-03-24","MEAN_MOTION_DDOT":"0.0000000000000","MEAN_MOTION":"15.06392073","GP_ID":"208469899","ELEMENT_SET_NO":"999","OBJECT_NAME":"STARLINK-2266","TLE_LINE2":"2 47997  53.0532 157.0027 0001406  75.1453 284.9692 15.06392073 74629","CLASSIFICATION_TYPE":"U","MEAN_ANOMALY":"284.9692","CENTER_NAME":"EARTH","SITE":"AFETR","TLE_LINE1":"1 47997U 21024W   22200.85149075  .00001700  00000-0  13302-3 0  9990","OBJECT_ID":"2021-024W","ARG_OF_PERICENTER":"75.1453","REV_AT_EPOCH":"7462","APOAPSIS":"548.212","INCLINATION":"53.0532"},{"ARG_OF_PERICENTER":"73.9126","OBJECT_ID":"2021-024X","TLE_LINE1":"1 47998U 21024X   22200.52762153  .00007962  00000-0  55267-3 0  9995","SITE":"AFETR","INCLINATION":"53.0537","APOAPSIS":"548.332","REV_AT_EPOCH":"7486","CLASSIFICATION_TYPE":"U","CENTER_NAME":"EARTH","MEAN_ANOMALY":"286.2044","TLE_LINE2":"2 47998  53.0537 133.7029 0001646  73.9126 286.2044 15.06407030 74869","ELEMENT_SET_NO":"999","GP_ID":"208443607","MEAN_MOTION":"15.06407030","OBJECT_NAME":"STARLINK-2296","MEAN_MOTION_DDOT":"0.0000000000000","FILE":"3517724","LAUNCH_DATE":"2021-03-24","ECCENTRICITY":"0.00016460","PERIOD":"95.592","SEMIMAJOR_AXIS":"6925.327","NORAD_CAT_ID":"47998","COUNTRY_CODE":"US","OBJECT_TYPE":"PAYLOAD","DECAY_DATE":null,"REF_FRAME":"TEME","TIME_SYSTEM":"UTC","EPHEMERIS_TYPE":"0","RCS_SIZE":"LARGE","MEAN_MOTION_DOT":"0.00007962","BSTAR":"0.00055267000000","RA_OF_ASC_NODE":"133.7029","EPOCH":"2022-07-19T12:39:46.500192","MEAN_ELEMENT_THEORY":"SGP4","PERIAPSIS":"546.052"},{"PERIAPSIS":"546.150","BSTAR":"0.00032437000000","RA_OF_ASC_NODE":"101.8992","MEAN_ELEMENT_THEORY":"SGP4","EPOCH":"2022-07-19T21:01:16.675680","RCS_SIZE":"LARGE","MEAN_MOTION_DOT":"0.00004554","EPHEMERIS_TYPE":"0","TIME_SYSTEM":"UTC","OBJECT_TYPE":"PAYLOAD","REF_FRAME":"TEME","DECAY_DATE":null,"SEMIMAJOR_AXIS":"6925.338","PERIOD":"95.592","COUNTRY_CODE":"US","NORAD_CAT_ID":"47999","ECCENTRICITY":"0.00015210","FILE":"3517796","LAUNCH_DATE":"2021-03-24","MEAN_MOTION_DDOT":"0.0000000000000","GP_ID":"208471400","ELEMENT_SET_NO":"999","MEAN_MOTION":"15.06403438","OBJECT_NAME":"STARLINK-2218","TLE_LINE2":"2 47999  53.0522 101.8992 0001521  82.5526 277.5635 15.06403438 75331","MEAN_ANOMALY":"277.5635","CENTER_NAME":"EARTH","CLASSIFICATION_TYPE":"U","TLE_LINE1":"1 47999U 21024Y   22200.87588745  .00004554  00000-0  32437-3 0  9995","SITE":"AFETR","OBJECT_ID":"2021-024Y","ARG_OF_PERICENTER":"82.5526","REV_AT_EPOCH":"7533","APOAPSIS":"548.256","INCLINATION":"53.0522"},{"ARG_OF_PERICENTER":"64.7470","OBJECT_ID":"2021-024Z","TLE_LINE1":"1 48000U 21024Z   22200.93905539  .00001658  00000-0  13021-3 0  9990","SITE":"AFETR","APOAPSIS":"548.248","INCLINATION":"53.0568","REV_AT_EPOCH":"7556","CENTER_NAME":"EARTH","MEAN_ANOMALY":"295.3673","CLASSIFICATION_TYPE":"U","TLE_LINE2":"2 48000  53.0568  86.8254 0001483  64.7470 295.3673 15.06397710 75565","MEAN_MOTION":"15.06397710","GP_ID":"208471651","ELEMENT_SET_NO":"999","OBJECT_NAME":"STARLINK-2270","MEAN_MOTION_DDOT":"0.0000000000000","FILE":"3517796","LAUNCH_DATE":"2021-03-24","ECCENTRICITY":"0.00014830","PERIOD":"95.592","SEMIMAJOR_AXIS":"6925.356","NORAD_CAT_ID":"48000","COUNTRY_CODE":"US","OBJECT_TYPE":"PAYLOAD","DECAY_DATE":null,"REF_FRAME":"TEME","TIME_SYSTEM":"UTC","EPHEMERIS_TYPE":"0","MEAN_MOTION_DOT":"0.00001658","RCS_SIZE":"LARGE","BSTAR":"0.00013021000000","RA_OF_ASC_NODE":"86.8254","EPOCH":"2022-07-19T22:32:14.385696","MEAN_ELEMENT_THEORY":"SGP4","PERIAPSIS":"546.194"},{"ECCENTRICITY":"0.00014160","MEAN_MOTION_DDOT":"0.0000000000000","LAUNCH_DATE":"2021-03-24","FILE":"3517796","CLASSIFICATION_TYPE":"U","MEAN_ANOMALY":"275.8087","CENTER_NAME":"EARTH","TLE_LINE2":"2 48002  53.0567 107.1099 0001416  84.3064 275.8087 15.06401632 75261","OBJECT_NAME":"STARLINK-2265","ELEMENT_SET_NO":"999","GP_ID":"208470399","MEAN_MOTION":"15.06401632","APOAPSIS":"548.189","INCLINATION":"53.0567","REV_AT_EPOCH":"7526","ARG_OF_PERICENTER":"84.3064","SITE":"AFETR","TLE_LINE1":"1 48002U 21024AB  22200.90036446  .00001760  00000-0  13704-3 0  9993","OBJECT_ID":"2021-024AB","EPOCH":"2022-07-19T21:36:31.489344","MEAN_ELEMENT_THEORY":"SGP4","BSTAR":"0.00013704000000","RA_OF_ASC_NODE":"107.1099","PERIAPSIS":"546.228","MEAN_MOTION_DOT":"0.00001760","RCS_SIZE":"LARGE","DECAY_DATE":null,"REF_FRAME":"TEME","OBJECT_TYPE":"PAYLOAD","TIME_SYSTEM":"UTC","EPHEMERIS_TYPE":"0","NORAD_CAT_ID":"48002","COUNTRY_CODE":"US","PERIOD":"95.592","SEMIMAJOR_AXIS":"6925.344"},{"OBJECT_NAME":"STARLINK-2263","MEAN_MOTION":"15.06407488","GP_ID":"208470649","ELEMENT_SET_NO":"999","CLASSIFICATION_TYPE":"U","CENTER_NAME":"EARTH","MEAN_ANOMALY":"302.7753","TLE_LINE2":"2 48003  53.0542 182.7448 0001714  57.3401 302.7753 15.06407488 74183","INCLINATION":"53.0542","APOAPSIS":"548.378","REV_AT_EPOCH":"7418","ARG_OF_PERICENTER":"57.3401","TLE_LINE1":"1 48003U 21024AC  22200.68884152  .00000726  00000-0  67626-4 0  9998","SITE":"AFETR","OBJECT_ID":"2021-024AC","ECCENTRICITY":"0.00017140","LAUNCH_DATE":"2021-03-24","FILE":"3517796","MEAN_MOTION_DDOT":"0.0000000000000","TIME_SYSTEM":"UTC","EPHEMERIS_TYPE":"0","DECAY_DATE":null,"REF_FRAME":"TEME","OBJECT_TYPE":"PAYLOAD","NORAD_CAT_ID":"48003","COUNTRY_CODE":"US","PERIOD":"95.592","SEMIMAJOR_AXIS":"6925.326","PERIAPSIS":"546.004","EPOCH":"2022-07-19T16:31:55.907328","MEAN_ELEMENT_THEORY":"SGP4","BSTAR":"0.00006762600000","RA_OF_ASC_NODE":"182.7448","MEAN_MOTION_DOT":"0.00000726","RCS_SIZE":"LARGE"},{"MEAN_MOTION_DDOT":"0.0000000000000","LAUNCH_DATE":"2021-03-24","FILE":"3517796","ECCENTRICITY":"0.00016270","APOAPSIS":"548.306","INCLINATION":"53.0542","REV_AT_EPOCH":"7459","ARG_OF_PERICENTER":"69.7122","OBJECT_ID":"2021-024AE","TLE_LINE1":"1 48005U 21024AE  22200.59945242  .00002182  00000-0  16526-3 0  9998","SITE":"AFETR","CENTER_NAME":"EARTH","CLASSIFICATION_TYPE":"U","MEAN_ANOMALY":"290.4041","TLE_LINE2":"2 48005  53.0542 153.1323 0001627  69.7122 290.4041 15.06411164 74593","OBJECT_NAME":"STARLINK-2254","GP_ID":"208470900","MEAN_MOTION":"15.06411164","ELEMENT_SET_NO":"999","MEAN_MOTION_DOT":"0.00002182","RCS_SIZE":"LARGE","EPOCH":"2022-07-19T14:23:12.689088","MEAN_ELEMENT_THEORY":"SGP4","BSTAR":"0.00016526000000","RA_OF_ASC_NODE":"153.1323","PERIAPSIS":"546.053","NORAD_CAT_ID":"48005","COUNTRY_CODE":"US","PERIOD":"95.591","SEMIMAJOR_AXIS":"6925.314","DECAY_DATE":null,"REF_FRAME":"TEME","OBJECT_TYPE":"PAYLOAD","TIME_SYSTEM":"UTC","EPHEMERIS_TYPE":"0"},{"EPOCH":"2022-07-19T21:16:31.583424","MEAN_ELEMENT_THEORY":"SGP4","BSTAR":"0.00021430000000","RA_OF_ASC_NODE":"86.8473","PERIAPSIS":"546.277","RCS_SIZE":"LARGE","MEAN_MOTION_DOT":"0.00002913","DECAY_DATE":null,"REF_FRAME":"TEME","OBJECT_TYPE":"PAYLOAD","TIME_SYSTEM":"UTC","EPHEMERIS_TYPE":"0","NORAD_CAT_ID":"48008","COUNTRY_CODE":"US","PERIOD":"95.592","SEMIMAJOR_AXIS":"6925.323","ECCENTRICITY":"0.00013150","MEAN_MOTION_DDOT":"0.0000000000000","LAUNCH_DATE":"2021-03-24","FILE":"3517796","CENTER_NAME":"EARTH","MEAN_ANOMALY":"280.2706","CLASSIFICATION_TYPE":"U","TLE_LINE2":"2 48008  53.0565  86.8473 0001315  79.8431 280.2706 15.06408392 75559","OBJECT_NAME":"STARLINK-2271","ELEMENT_SET_NO":"999","GP_ID":"208471151","MEAN_MOTION":"15.06408392","APOAPSIS":"548.099","INCLINATION":"53.0565","REV_AT_EPOCH":"7555","ARG_OF_PERICENTER":"79.8431","TLE_LINE1":"1 48008U 21024AH  22200.88647666  .00002913  00000-0  21430-3 0  9994","OBJECT_ID":"2021-024AH","SITE":"AFETR"}];
